0 SL-12 R/B(AUX MOTOR)
1 32281U 07052G   13279.12215576  .00000090  00000-0  33507-3 0  1151
2 32281 065.4895 134.7252 5541361 081.6745 000.6226 04.23372506 91711
0 SL-12 R/B(AUX MOTOR)
1 32281U 07052G   13283.84626597  .00000072  00000-0  29958-3 0  1160
2 32281 065.4902 133.1436 5542285 081.3941 000.8622 04.23372679 91913
0 SL-12 R/B(AUX MOTOR)
1 32281U 07052G   13288.09783921  .00000070  00000-0  11853-3 0  1171
2 32281 065.4906 131.7202 5543176 081.1421 000.8870 04.23372931 92099
0 SL-12 R/B(AUX MOTOR)
1 32281U 07052G   13290.67902608  .00000010  00000-0  17312-3 0  1184
2 32281 065.4911 130.8571 5543341 080.9917 334.9960 04.23372921 92208
0 SL-12 R/B(AUX MOTOR)
1 32281U 07052G   13292.82180809  .00000064  00000-0  13397-3 0  1182
2 32281 065.4909 130.1380 5544175 080.8630 000.9155 04.23372920 92297
